AMC-3                   
1 24936U 97050A   26089.81234099 -.00000271  00000+0  00000+0 0  9995
2 24936   7.9555  64.9667 0003443 310.1485  33.5127  1.00272075 51642
NSS-11                  
1 26554U 00059A   26089.86141833  .00000011  00000+0  00000+0 0  9995
2 26554   1.9250  82.2995 0003218 291.6817 300.3640  1.00272728 40508
AMC-6                   
1 26580U 00067A   26089.72852990  .00000072  00000+0  00000+0 0  9998
2 26580   0.0539  48.1146 0003508 329.9005 297.2953  1.00271791 93106
AMC-11                  
1 28252U 04017A   26089.87571839 -.00000065  00000+0  00000+0 0  9994
2 28252   0.1095  79.8841 0003173 292.7442  19.7736  1.00272201 80070
AMC-15                  
1 28446U 04041A   26089.87701839 -.00000104  00000+0  00000+0 0  9995
2 28446   0.0538  41.1415 0002240 316.4843  41.3054  1.00271892 78513
NSS-10                  
1 28526U 05003A   26089.81908152 -.00000262  00000+0  00000+0 0  9999
2 28526   6.2549  71.3893 0003295 297.2564  76.9681  1.00271541 52371
ASTRA 1KR               
1 29055U 06012A   26089.90159724  .00000104  00000+0  00000+0 0  9995
2 29055   0.2727  82.0637 0003468 285.5186 164.2733  1.00275158 44916
ASTRA 1L                
1 31306U 07016A   26089.82168153 -.00000199  00000+0  00000+0 0  9994
2 31306   1.1199  82.1238 0004111 304.4473  72.9117  1.00271341 44208
ASTRA 4A                
1 32299U 07057A   26089.96155784  .00000018  00000+0  00000+0 0  9991
2 32299   0.0463  39.6180 0002609 337.9668 161.7147  1.00273447 50860
ASTRA 1M                
1 33436U 08057A   26089.75912335  .00000105  00000+0  00000+0 0  9993
2 33436   0.0978  74.0762 0002358 349.6729  57.0498  1.00269616 44955
NSS-9                   
1 33749U 09008A   26089.86280500  .00000057  00000+0  00000+0 0  9997
2 33749   1.0599  83.3507 0002259 270.8599 327.7065  1.00270331 62731
SES-7 (PROTOSTAR 2)     
1 34941U 09027A   26089.84798493 -.00000360  00000+0  00000+0 0  9994
2 34941   0.0795  77.8707 0001664 254.8332 269.0340  1.00271298 61847
NSS-12                  
1 36032U 09058A   26089.80044889  .00000056  00000+0  00000+0 0  9991
2 36032   0.0644  55.9083 0004995 296.0002 181.4220  1.00272069 60131
SES-1                   
1 36516U 10016A   26089.87788506  .00000000  00000+0  00000+0 0  9991
2 36516   0.0124 183.6847 0002648 186.9963  32.6309  1.00270200 58243
ASTRA 3B                
1 36581U 10021A   26089.90255058  .00000123  00000+0  00000+0 0  9990
2 36581   1.2665  84.5020 0003525 300.9988 151.1903  1.00270369 58085
SES-3                   
1 37748U 11035A   26089.87745172 -.00000116  00000+0  00000+0 0  9992
2 37748   1.1248  83.9041 0003536 288.5180  28.7051  1.00271349 53807
ASTRA 1N                
1 37775U 11041A   26089.68773889  .00000104  00000+0  00000+0 0  9990
2 37775   0.1153  54.3841 0005148 339.1426  61.3177  1.00273785 43748
SES-2                   
1 37809U 11049A   26089.88065840 -.00000211  00000+0  00000+0 0  9999
2 37809   0.0466  61.9782 0002945 308.1533  48.1518  1.00269723 53174
QUETZSAT 1              
1 37826U 11054A   26089.88265175 -.00000257  00000+0  00000+0 0  9997
2 37826   0.0444  44.7977 0002854 335.9254  48.2834  1.00271867 49080
SES-4                   
1 38087U 12007A   26089.39434137 -.00000185  00000+0  00000+0 0  9998
2 38087   0.0295  65.4438 0002313 312.0956 290.2108  1.00272283 51439
SES-5                   
1 38652U 12036A   26089.32838777  .00000017  00000+0  00000+0 0  9992
2 38652   0.0644 302.4393 0002053  64.5692 303.8948  1.00273068 43667
ASTRA 2F                
1 38778U 12051A   26089.90341725  .00000135  00000+0  00000+0 0  9995
2 38778   0.0513 250.0352 0001635  35.5122 256.1415  1.00273573 40358
SES-6                   
1 39172U 13026A   26089.88981053 -.00000277  00000+0  00000+0 0  9996
2 39172   0.0505 287.6114 0001888 108.2767  72.1948  1.00271547 46940
O3B FM5                 
1 39188U 13031A   26087.08443740 -.00000029  00000+0  00000+0 0  9990
2 39188   0.1013   7.8394 0003249 349.0661   3.0879  5.00116427232981
O3B FM4                 
1 39189U 13031B   26086.40408870 -.00000028  00000+0  00000+0 0  9990
2 39189   0.0535 345.5776 0005069  27.4764 346.9547  5.00115128232954
O3B FM2                 
1 39190U 13031C   26089.06831082 -.00000029  00000+0  00000+0 0  9993
2 39190   0.0524 338.9727 0002803  27.1872 353.8392  5.00115964233141
O3B PFM                 
1 39191U 13031D   26089.68209776 -.00000029  00000+0  00000+0 0  9991
2 39191   0.0699   4.6205 0005318  14.5728 340.8226  5.00116024232742
ASTRA 2E                
1 39285U 13056A   26089.76085668  .00000134  00000+0  00000+0 0  9999
2 39285   0.0777  35.9116 0002355 329.7915 124.8389  1.00269791 45634
SES-8                   
1 39460U 13071A   26089.50253307 -.00000286  00000+0  00000+0 0  9999
2 39460   0.0159 245.4348 0002120 148.8876  69.4652  1.00271247 43650
ASTRA 5B                
1 39617U 14011B   26089.75990334  .00000121  00000+0  00000+0 0  9990
2 39617   0.0840 301.5332 0003562  43.6547 140.0000  1.00270328 43883
O3B FM3                 
1 40079U 14038A   26089.74873346 -.00000029  00000+0  00000+0 0  9993
2 40079   0.0528 354.6604 0000942  81.8157 283.5302  5.00115559209128
O3B FM7                 
1 40080U 14038B   26087.89581251 -.00000029  00000+0  00000+0 0  9990
2 40080   0.0574 348.2878 0004268   7.0561   4.6475  5.00115549213865
O3B FM6                 
1 40081U 14038C   26089.72182696 -.00000029  00000+0  00000+0 0  9995
2 40081   0.0539 351.8912 0002640  15.6964 352.4122  5.00115712213900
O3B FM8                 
1 40082U 14038D   26089.57523973 -.00000029  00000+0  00000+0 0  9996
2 40082   0.0546 351.0068 0002672  20.4601 348.5350  5.00115956214012
O3B FM10                
1 40348U 14083A   26088.40299652 -.00000029  00000+0  00000+0 0  9996
2 40348   0.0446 335.3536 0002713  29.5150 355.1295  5.00115087205899
O3B FM11                
1 40349U 14083B   26089.41515090 -.00000029  00000+0  00000+0 0  9996
2 40349   0.0578   0.1763 0002972 358.1046   1.7139  5.00115499205974
O3B FM12                
1 40350U 14083C   26089.84200750 -.00000029  00000+0  00000+0 0  9999
2 40350   0.0570 359.6378 0002594   4.6400 355.7204  5.00115922206000
O3B FM9                 
1 40351U 14083D   26089.06927619 -.00000029  00000+0  00000+0 0  9994
2 40351   0.0590   0.2360 0002715   7.1018 352.6617  5.00115889206108
ASTRA 2G                
1 40364U 14089A   26089.90341725  .00000000  00000+0  00000+0 0  9993
2 40364   0.0226  10.5345 0004911  28.7078 142.4580  1.00270180 41181
SES-9                   
1 41380U 16013A   26088.61433648  .00000000  00000+0  00000+0 0  9994
2 41380   0.0165 205.2725 0001920 199.5475 111.6574  1.00268258 36641
SES-10                  
1 42432U 17017A   26089.88461052 -.00000288  00000+0  00000+0 0  9997
2 42432   0.0319  59.9067 0002734 319.3464  60.5664  1.00271593 32967
SES-15                  
1 42709U 17026A   26089.58703181  .00000043  00000+0  00000+0 0  9991
2 42709   0.0377 335.2625 0000681  27.7517 267.1207  1.00270637  6648
SES-11 (ECHOSTAR 105)   
1 42967U 17063A   26089.87701839 -.00000105  00000+0  00000+0 0  9998
2 42967   0.0451  30.9704 0002657 350.7607  17.2961  1.00271980 30930
SES-14                  
1 43175U 18012B   26089.88842387 -.00000294  00000+0  00000+0 0  9999
2 43175   0.0355  50.8688 0001025 313.0054  96.7187  1.00271034  6242
O3B FM15                
1 43231U 18024A   26087.93670610 -.00000029  00000+0  00000+0 0  9993
2 43231   0.0500   2.8478 0002658   1.3696 355.7802  5.00115661147002
O3B FM16                
1 43232U 18024B   26089.58819403 -.00000029  00000+0  00000+0 0  9992
2 43232   0.0468   6.1520 0002706 358.7495 355.0969  5.00115908147013
O3B FM14                
1 43233U 18024C   26089.82885116 -.00000029  00000+0  00000+0 0  9994
2 43233   0.0454   5.4966 0002856   3.0861 351.4181  5.00115670147032
O3B FM13                
1 43234U 18024D   26084.69755415 -.00000024  00000+0  00000+0 0  9998
2 43234   0.0470 335.8508 0003967 348.6026  35.5167  5.00115556146887
SES-12                  
1 43488U 18049A   26089.84538492 -.00000285  00000+0  00000+0 0  9991
2 43488   0.0475  37.1624 0001858 266.8705 283.5190  1.00271045 28631
O3B FM20                
1 44112U 19020A   26089.65499072 -.00000029  00000+0  00000+0 0  9991
2 44112   0.0528   0.8781 0002689 357.0186   2.0980  5.00115501127645
O3B FM19                
1 44113U 19020B   26089.68209601 -.00000029  00000+0  00000+0 0  9992
2 44113   0.0579 352.9669 0004070  11.4764 355.5562  5.00115841127512
O3B FM17                
1 44114U 19020C   26089.76216344 -.00000029  00000+0  00000+0 0  9994
2 44114   0.0364 347.0242 0003605   1.3449  11.6185  5.00115100127607
O3B FM18                
1 44115U 19020D   26089.30868944 -.00000029  00000+0  00000+0 0  9994
2 44115   0.0532   1.0796 0002730   7.2110 351.7096  5.00115298127702
SES-17                  
1 49332U 21095A   26089.88461052 -.00000288  00000+0  00000+0 0  9994
2 49332   0.0470  32.6272 0001050 334.4177  72.5662  1.00270017 17061
SES-22                  
1 52933U 22071A   26089.72774988  .00000088  00000+0  00000+0 0  9995
2 52933   0.0202 259.0719 0001320 115.1406 296.8818  1.00274862  6733
SES-20                  
1 53960U 22123A   26089.44957792 -.00000117  00000+0  00000+0 0  9993
2 53960   0.0330  90.1512 0001477 322.9172 193.5045  1.00268830 12743
SES-21                  
1 53961U 22123B   26088.40927637  .00000050  00000+0  00000+0 0  9999
2 53961   0.0294  69.2169 0001052 300.6124 193.3118  1.00270615  6417
O3B MPOWER F1           
1 54755U 22174A   26089.81674151 -.00000029  00000+0  00000+0 0  9990
2 54755   0.0626 349.3720 0005571  37.9955  27.4304  5.00114906 61436
O3B MPOWER F2           
1 54756U 22174B   26089.35319055 -.00000029  00000+0  00000+0 0  9999
2 54756   0.0599 346.5845 0005966  20.4020 353.0175  5.00115570 61501
SES-18                  
1 55970U 23038A   26089.87745172 -.00000116  00000+0  00000+0 0  9995
2 55970   0.0400 264.5571 0001911  57.6808  78.7889  1.00271841 11315
SES-19                  
1 55971U 23038B   26089.72852990  .00000072  00000+0  00000+0 0  9997
2 55971   0.0369 278.1028 0001758  83.7061 313.6601  1.00271400 11299
O3B MPOWER F4           
1 56367U 23059A   26089.81731710 -.00000029  00000+0  00000+0 0  9999
2 56367   0.0638   4.9210 0006972  18.6810 336.4259  5.00116070 54685
O3B MPOWER F3           
1 56368U 23059B   26089.85062248 -.00000029  00000+0  00000+0 0  9997
2 56368   0.0651   4.9451 0006579   8.1692 346.8988  5.00116647 50807
O3B MPOWER F5           
1 58346U 23175A   26089.75140295 -.00000029  00000+0  00000+0 0  9992
2 58346   0.0422   8.1648 0004234   8.9764 342.8690  5.00115718 45515
O3B MPOWER F6           
1 58347U 23175B   26089.65221341 -.00000029  00000+0  00000+0 0  9994
2 58347   0.0498   4.9821 0004914 352.5262   2.4851  5.00116364 44416
ASTRA 1P (SES-24)       
1 60086U 24115A   26088.92544839  .00000102  00000+0  00000+0 0  9992
2 60086   0.0622  20.3583 0003332 282.9829 236.3423  1.00276115  6400
O3B MPOWER F7           
1 62362U 24244A   26089.71842970 -.00000029  00000+0  00000+0 0  9998
2 62362   0.0717   1.7621 0006102   5.8246 352.4185  5.00115166 22598
O3B MPOWER F8           
1 62363U 24244B   26089.48549728 -.00000029  00000+0  00000+0 0  9998
2 62363   0.0432 315.3637 0006477  44.4261   0.2057  5.00115615 16931
